ONEWEB-0589             
1 54655U 22166P   25291.11983051  .00000082  00000+0  16806-3 0  9992
2 54655  87.9167 292.2905 0001534  62.9325 297.1966 13.21790639139569
ONEWEB-0590             
1 54656U 22166Q   25290.99266451  .00000043  00000+0  73222-4 0  9999
2 54656  87.9166 292.2919 0002221  81.3962 278.7423 13.21697740139539
ONEWEB-0591             
1 54657U 22166R   25291.15605284  .00000022  00000+0  22026-4 0  9993
2 54657  87.9167 292.2830 0001851  86.2722 273.8624 13.21794906139585
ONEWEB-0592             
1 54658U 22166S   25291.08359389  .00000072  00000+0  14169-3 0  9991
2 54658  87.9177 292.2551 0001841  86.4332 273.7013 13.21785572139451
ONEWEB-0593             
1 54659U 22166T   25291.10681034  .00000068  00000+0  13275-3 0  9992
2 54659  87.9167 292.2828 0001690  90.6157 269.5171 13.21835601139561
ONEWEB-0594             
1 54660U 22166U   25291.12631934  .00000078  00000+0  15814-3 0  9992
2 54660  87.9168 292.2965 0001870  91.5279 268.6069 13.21763541139582
ONEWEB-0595             
1 54661U 22166V   25291.10357378  .00000098  00000+0  20524-3 0  9994
2 54661  87.9166 292.2753 0002051  91.2518 268.8850 13.21848850139555
ONEWEB-0596             
1 54662U 22166W   25291.07709534 -.00000029  00000+0 -10155-3 0  9991
2 54662  87.9167 292.2965 0001916  88.2605 271.8749 13.21805742139558
